SENTINEL-1A             
1 39634U 14016A   26198.12747764 -.00000104  00000+0 -12369-4 0  9992
2 39634  98.1769 205.2234 0001426  85.8154 274.3209 14.59195939654387
SENTINEL-1C             
1 62261U 24235A   26198.30402350 -.00000072  00000+0 -54870-5 0  9995
2 62261  98.1825 205.1848 0001333  88.8410 271.2942 14.59197657 85801
SENTINEL-1D             
1 66315U 25251A   26197.99560534 -.00000079  00000+0 -69917-5 0  9996
2 66315  98.1840 204.9359 0001317  88.7501 271.3849 14.59196982 37071
