{"fetched_at":"2026-07-17T17:38:34.953Z","source":"https://celestrak.org/NORAD/elements/gp.php?NAME=SENTINEL&FORMAT=JSON","constellation":"sentinel-1","records":[{"OBJECT_NAME":"SENTINEL-1A","OBJECT_ID":"2014-016A","EPOCH":"2026-07-17T03:03:34.068096","CLASSIFICATION_TYPE":"U","MEAN_MOTION":14.59195939,"ECCENTRICITY":0.00014269,"INCLINATION":98.1769,"RA_OF_ASC_NODE":205.2234,"ARG_OF_PERICENTER":85.8154,"MEAN_ANOMALY":274.3209,"EPHEMERIS_TYPE":0,"NORAD_CAT_ID":39634,"ELEMENT_SET_NO":999,"REV_AT_EPOCH":65438,"BSTAR":-0.000012369107,"MEAN_MOTION_DOT":-0.00000104,"MEAN_MOTION_DDOT":0},{"OBJECT_NAME":"SENTINEL-1C","OBJECT_ID":"2024-235A","EPOCH":"2026-07-17T07:17:47.630400","CLASSIFICATION_TYPE":"U","MEAN_MOTION":14.59197657,"ECCENTRICITY":0.00013338,"INCLINATION":98.1825,"RA_OF_ASC_NODE":205.1848,"ARG_OF_PERICENTER":88.841,"MEAN_ANOMALY":271.2942,"EPHEMERIS_TYPE":0,"NORAD_CAT_ID":62261,"ELEMENT_SET_NO":999,"REV_AT_EPOCH":8580,"BSTAR":-0.000005486989,"MEAN_MOTION_DOT":-7.2e-7,"MEAN_MOTION_DDOT":0},{"OBJECT_NAME":"SENTINEL-1D","OBJECT_ID":"2025-251A","EPOCH":"2026-07-16T23:53:40.301376","CLASSIFICATION_TYPE":"U","MEAN_MOTION":14.59196982,"ECCENTRICITY":0.00013179,"INCLINATION":98.184,"RA_OF_ASC_NODE":204.9359,"ARG_OF_PERICENTER":88.7501,"MEAN_ANOMALY":271.3849,"EPHEMERIS_TYPE":0,"NORAD_CAT_ID":66315,"ELEMENT_SET_NO":999,"REV_AT_EPOCH":3707,"BSTAR":-0.000006991735,"MEAN_MOTION_DOT":-7.9e-7,"MEAN_MOTION_DDOT":0}]}
